     3.04           N: GNSS NAV DATA    M: Mixed            RINEX VERSION / TYPE
sbp2rinex v2.3 (RTKL                    20221206 123528 UTC PGM / RUN BY / DATE 
format: Swift Navigation SBP-JSON, option:                  COMMENT             
log: swift-gnss-20221206-124503.sbp.json                    COMMENT             
                                                            END OF HEADER       
G05 2022 12 06 12 00 00 -.107024796307D-03 -.147792889038D-11  .000000000000D+00
      .410000000000D+02 -.346250000000D+02  .434303804782D-08  .144818981211D+01
     -.176951289177D-05  .586386758368D-02  .109300017357D-04  .515357726669D+04
      .216000000000D+06 -.156462192535D-06  .102780909900D+00 -.614672899246D-07
      .963907062781D+00  .173187500000D+03  .114080122830D+01 -.780782522726D-08
      .469662420468D-09  .200000000000D+01  .223900000000D+04  .100000000000D+01
      .200000000000D+01  .000000000000D+00 -.111758708954D-07  .410000000000D+02
      .215149000000D+06  .400000000000D+01
G15 2022 12 06 12 00 00 -.640749931335D-05  .318323145621D-11  .000000000000D+00
      .660000000000D+02  .164375000000D+02  .577166898461D-08  .173447109203D+00
      .107102096081D-05  .147313515190D-01  .530108809471D-05  .515363726234D+04
      .216000000000D+06 -.143423676491D-06  .105898846806D+01  .122934579849D-06
      .931008138855D+00  .262218750000D+03  .116545813467D+01 -.882251035011D-08
      .196793911542D-09  .200000000000D+01  .223900000000D+04  .100000000000D+01
      .200000000000D+01  .000000000000D+00 -.107102096081D-07  .660000000000D+02
      .215149000000D+06  .400000000000D+01
G14 2022 12 06 12 44 32 -.725397840142D-04  .602540239925D-11  .000000000000D+00
      .101000000000D+03  .130187500000D+03  .436661045828D-08 -.206765387228D+01
      .674277544022D-05  .244900106918D-02  .913254916668D-05  .515366633987D+04
      .218672000000D+06 -.353902578354D-07 -.296048132681D+01 -.931322574615D-08
      .950944018407D+00  .198437500000D+03 -.305578080928D+01 -.793211611876D-08
      .117862052285D-09  .200000000000D+01  .223900000000D+04  .100000000000D+01
      .200000000000D+01  .000000000000D+00 -.791624188423D-08  .101000000000D+03
      .215149000000D+06  .400000000000D+01
G20 2022 12 06 12 00 00  .465375836939D-03 -.250111042988D-11  .000000000000D+00
      .570000000000D+02 -.445000000000D+02  .469983862429D-08 -.794911428966D-01
     -.221654772758D-05  .470359635074D-02  .105462968349D-04  .515370304680D+04
      .216000000000D+06  .651925802231D-07 -.165316150538D-01 -.167638063431D-07
      .946366806673D+00  .169968750000D+03 -.300662670038D+01 -.799961893052D-08
      .419303179946D-09  .200000000000D+01  .223900000000D+04  .100000000000D+01
      .400000000000D+01  .000000000000D+00 -.838190317154D-08  .570000000000D+02
      .215149000000D+06  .400000000000D+01
G07 2022 12 06 12 00 00  .278206542134D-03 -.522959453519D-11  .000000000000D+00
      .580000000000D+02 -.728125000000D+01  .465805116939D-08 -.170598303581D+01
     -.474974513054D-06  .165021528956D-01  .908412039280D-05  .515361138535D+04
      .216000000000D+06  .286847352982D-06  .224496073723D+01 -.156462192535D-06
      .950376714868D+00  .195156250000D+03 -.223582511957D+01 -.775853745994D-08
     -.587881630487D-09  .200000000000D+01  .223900000000D+04  .100000000000D+01
      .200000000000D+01  .000000000000D+00 -.111758708954D-07  .580000000000D+02
      .215149000000D+06  .400000000000D+01
S23 2022 12  6 11 46  8  .000000000000D+00  .000000000000D+00  .215169000000D+06
      .359446000000D+05  .000000000000D+00  .000000000000D+00  .100000000000D+01
      .220441400000D+05  .000000000000D+00  .000000000000D+00  .819200000000D+04
      .000000000000D+00  .000000000000D+00  .000000000000D+00  .000000000000D+00
E01 2022 12 06 11 00 00 -.576914171688D-03 -.737543359719D-11  .000000000000D+00
      .980000000000D+02  .189187500000D+03  .248724646094D-08  .123396723055D+01
      .889971852303D-05  .232196995057D-03  .115241855383D-04  .544062863541D+04
      .212400000000D+06 -.633299350739D-07 -.306430651299D+01 -.242143869400D-07
      .972024520174D+00  .978750000000D+02 -.190795017915D+00 -.524057543386D-08
      .464305054455D-11  .517000000000D+03  .223900000000D+04  .000000000000D+00
      .312000000000D+01  .000000000000D+00  .698491930962D-09  .698491930962D-09
      .215247000000D+06  .000000000000D+00
S23 2022 12  6 11 48 48  .000000000000D+00  .000000000000D+00  .215329000000D+06
      .359446000000D+05  .000000000000D+00  .000000000000D+00  .100000000000D+01
      .220441400000D+05  .000000000000D+00  .000000000000D+00  .819200000000D+04
      .000000000000D+00  .000000000000D+00  .000000000000D+00  .000000000000D+00
E31 2022 12 06 11 40 00 -.509960518684D-03 -.966338120634D-12  .000000000000D+00
      .102000000000D+03  .179031250000D+03  .258225041824D-08  .133041111287D+01
      .835582613945D-05  .286314636469D-03  .107828527689D-04  .544063030434D+04
      .214800000000D+06 -.130385160446D-07 -.306736644460D+01  .465661287308D-07
      .971587356365D+00  .112781250000D+03 -.826256151651D+00 -.525343311229D-08
      .100004165575D-10  .517000000000D+03  .223900000000D+04  .000000000000D+00
      .312000000000D+01  .000000000000D+00  .558793544769D-08  .605359673500D-08
      .215487000000D+06  .000000000000D+00
E04 2022 12 06 11 40 00 -.820937566459D-05 -.821387402539D-11  .000000000000D+00
      .102000000000D+03  .247187500000D+02  .371194033150D-08 -.203720124435D+00
      .114738941193D-05  .901332823560D-04  .443309545517D-05  .544060626411D+04
      .214800000000D+06 -.279396772385D-07  .111836583910D+01 -.931322574615D-08
      .957119434495D+00  .242562500000D+03  .281245941491D+01 -.571023785433D-08
      .311084386485D-09  .517000000000D+03  .223900000000D+04  .000000000000D+00
      .312000000000D+01  .000000000000D+00 -.302679836750D-08 -.349245965481D-08
      .215487000000D+06  .000000000000D+00
S23 2022 12  6 11 51 28  .000000000000D+00  .000000000000D+00  .215489000000D+06
      .359446000000D+05  .000000000000D+00  .000000000000D+00  .100000000000D+01
      .220441400000D+05  .000000000000D+00  .000000000000D+00  .819200000000D+04
      .000000000000D+00  .000000000000D+00  .000000000000D+00  .000000000000D+00
E05 2022 12 06 11 40 00 -.117731688078D-03  .372324393538D-11  .000000000000D+00
      .102000000000D+03  .176562500000D+02  .377694303912D-08 -.103816022164D+01
      .935047864914D-06  .139121082611D-03  .429339706898D-05  .544060887337D+04
      .214800000000D+06  .894069671631D-07  .111826786455D+01  .149011611938D-07
      .957090086895D+00  .245375000000D+03  .207057349103D+01 -.582381401380D-08
      .261439461432D-09  .517000000000D+03  .223900000000D+04  .000000000000D+00
      .312000000000D+01  .000000000000D+00  .325962901115D-08  .372529029846D-08
      .215496000000D+06  .000000000000D+00
S23 2022 12  6 11 54  8  .000000000000D+00  .000000000000D+00  .215649000000D+06
      .359446000000D+05  .000000000000D+00  .000000000000D+00  .100000000000D+01
      .220441400000D+05  .000000000000D+00  .000000000000D+00  .819200000000D+04
      .000000000000D+00  .000000000000D+00  .000000000000D+00  .000000000000D+00
G17 2022 12 06 12 00 00  .683728605509D-03  .306954461848D-11  .000000000000D+00
      .520000000000D+02  .226250000000D+02  .443768484739D-08  .114816991448D+01
      .910833477974D-06  .138840937288D-01  .884756445885D-06  .515366790009D+04
      .216000000000D+06 -.122934579849D-06 -.188572050989D+01 -.260770320892D-06
      .976296815893D+00  .368625000000D+03 -.144988690680D+01 -.844249452093D-08
      .889322758148D-10  .200000000000D+01  .223900000000D+04  .100000000000D+01
      .200000000000D+01  .000000000000D+00 -.111758708954D-07  .520000000000D+02
      .215689000000D+06  .400000000000D+01
S23 2022 12  6 11 56 48  .000000000000D+00  .000000000000D+00  .215809000000D+06
      .359446000000D+05  .000000000000D+00  .000000000000D+00  .100000000000D+01
      .220441400000D+05  .000000000000D+00  .000000000000D+00  .819200000000D+04
      .000000000000D+00  .000000000000D+00  .000000000000D+00  .000000000000D+00
S23 2022 12  6 11 59 28  .000000000000D+00  .000000000000D+00  .215969000000D+06
      .359446000000D+05  .000000000000D+00  .000000000000D+00  .100000000000D+01
      .220441400000D+05  .000000000000D+00  .000000000000D+00  .819200000000D+04
      .000000000000D+00  .000000000000D+00  .000000000000D+00  .000000000000D+00
G13 2022 12 06 14 00 00  .437258742750D-03  .670752342558D-11  .000000000000D+00
      .110000000000D+02  .390625000000D+01  .487663170271D-08  .171253056120D+01
      .154599547386D-06  .670515908860D-02  .504031777382D-05  .515366067505D+04
      .223200000000D+06 -.201165676117D-06  .133041799298D+01 -.391155481339D-07
      .968737861123D+00  .286968750000D+03  .951863525325D+00 -.809890878063D-08
      .742888087128D-10  .200000000000D+01  .223900000000D+04  .100000000000D+01
      .200000000000D+01  .000000000000D+00 -.116415321827D-07  .110000000000D+02
      .216019000000D+06  .400000000000D+01
G30 2022 12 06 14 00 00 -.535825733095D-03  .568434188608D-12  .000000000000D+00
      .410000000000D+02 -.859375000000D+01  .511235580728D-08 -.775830668919D+00
     -.542029738426D-06  .596417917404D-02  .923126935959D-05  .515367085075D+04
      .223200000000D+06  .115483999252D-06  .225362554249D+01  .204890966415D-07
      .935511258176D+00  .186375000000D+03 -.266733665847D+01 -.819998441941D-08
     -.692528846606D-09  .200000000000D+01  .223900000000D+04  .100000000000D+01
      .200000000000D+01  .000000000000D+00  .372529029846D-08  .410000000000D+02
      .216019000000D+06  .400000000000D+01
